CREW DRAGON 12          
1 67796U 26031A   26063.86671769  .00009014  00000+0  17477-3 0  9996
2 67796  51.6315  96.2009 0008177 157.5272 202.6076 15.48447334555490
